[{"OBJECT_NAME":"SHIYAN-5 (SY-5)","OBJECT_ID":"2013-068A","EPOCH":"2026-03-09T23:05:17.847168","MEAN_MOTION":14.43628019,"ECCENTRICITY":0.00128666,"INCLINATION":98.0874,"RA_OF_ASC_NODE":305.1507,"ARG_OF_PERICENTER":245.0461,"MEAN_ANOMALY":114.9394,"EPHEMERIS_TYPE":0,"CLASSIFICATION_TYPE":"U","NORAD_CAT_ID":39455,"ELEMENT_SET_NO":999,"REV_AT_EPOCH":64731,"BSTAR":0.00021006914,"MEAN_MOTION_DOT":6.72e-6,"MEAN_MOTION_DDOT":0},{"OBJECT_NAME":"NOAA 7 DEB","OBJECT_ID":"1981-059F","EPOCH":"2026-03-09T17:20:15.216576","MEAN_MOTION":14.43018875,"ECCENTRICITY":0.00205009,"INCLINATION":98.5024,"RA_OF_ASC_NODE":122.1127,"ARG_OF_PERICENTER":68.1917,"MEAN_ANOMALY":292.1451,"EPHEMERIS_TYPE":0,"CLASSIFICATION_TYPE":"U","NORAD_CAT_ID":24914,"ELEMENT_SET_NO":999,"REV_AT_EPOCH":49029,"BSTAR":0.00032387875,"MEAN_MOTION_DOT":1.043e-5,"MEAN_MOTION_DDOT":0}]
